NORAD_CAT_ID,OBJECT_NAME,OBJECT_TYPE,EPOCH,MEAN_MOTION,ECCENTRICITY,INCLINATION,RA_OF_ASC_NODE,ARG_OF_PERICENTER,MEAN_ANOMALY,BSTAR,MEAN_MOTION_DOT,MEAN_MOTION_DDOT,TLE_LINE0,TLE_LINE1,TLE_LINE2,SEMIMAJOR_AXIS,PERIOD,APOGEE,PERIGEE,DECAYED
53806.0,STARLINK-4768,PAYLOAD,2024-07-21 07:05:31,15.08857901,0.0001119,53.2159,46.282,96.0774,264.0346,0.0014443,0.00022784,0.0,0 STARLINK-4768,1 53806U 22111AK  24203.29550297  .00022784  00000-0  14443-2 0  9990,2 53806  53.2159  46.2820 0001119  96.0774 264.0346 15.08857901103997,6917.826,95.436,540.465,538.917,0.0
53806.0,STARLINK-4768,PAYLOAD,2024-07-21 19:48:37,15.08839317,0.000139,53.2161,43.9056,83.7643,276.3508,0.001227,0.00019293,0.0,0 STARLINK-4768,1 53806U 22111AK  24203.82542851  .00019293  00000-0  12270-2 0  9993,2 53806  53.2161  43.9056 0001390  83.7643 276.3508 15.08839317103261,6917.882,95.438,540.709,538.786,0.0
53806.0,STARLINK-4768,PAYLOAD,2024-07-22 13:17:51,15.08852483,0.0001453,53.2155,40.634,84.6153,275.5005,0.0010653,0.00016713,0.0,0 STARLINK-4768,1 53806U 22111AK  24204.55406797  .00016713  00000-0  10653-2 0  9999,2 53806  53.2155  40.6340 0001453  84.6153 275.5005 15.08852483103374,6917.842,95.437,540.712,538.702,0.0
53806.0,STARLINK-4768,PAYLOAD,2024-07-22 22:50:10,15.08852647,0.0001483,53.217,38.8483,90.5626,269.5536,0.00062315,9.647e-05,0.0,0 STARLINK-4768,1 53806U 22111AK  24204.95150575  .00009647  00000-0  62315-3 0  9994,2 53806  53.2170  38.8483 0001483  90.5626 269.5536 15.08852647104243,6917.842,95.437,540.733,538.681,0.0
53806.0,STARLINK-4768,PAYLOAD,2024-07-23 22:40:56,15.08855402,0.000142,53.217,34.3867,106.8893,253.2255,0.00037538,5.694e-05,0.0,0 STARLINK-4768,1 53806U 22111AK  24205.94509789  .00005694  00000-0  37538-3 0  9996,2 53806  53.2170  34.3867 0001420 106.8893 253.2255 15.08855402104394,6917.833,95.437,540.681,538.716,0.0
53806.0,STARLINK-4768,PAYLOAD,2024-07-25 12:50:12,15.08834758,0.0001638,53.2171,27.2502,100.2347,259.883,0.00030392,4.552e-05,0.0,0 STARLINK-4768,1 53806U 22111AK  24207.53487077  .00004552  00000-0  30392-3 0  9991,2 53806  53.2171  27.2502 0001638 100.2347 259.8830 15.08834758103824,6917.896,95.438,540.895,538.628,0.0
53806.0,STARLINK-4768,PAYLOAD,2024-07-26 14:16:23,15.08838786,0.0001588,53.2152,22.4946,88.0311,272.0863,0.00021874,3.195e-05,0.0,0 STARLINK-4768,1 53806U 22111AK  24208.59471385  .00003195  00000-0  21874-3 0  9990,2 53806  53.2152  22.4946 0001588  88.0311 272.0863 15.08838786104795,6917.884,95.438,540.848,538.651,0.0
53806.0,STARLINK-4768,PAYLOAD,2024-07-26 22:13:18,15.08853204,0.0001081,53.2173,21.0063,89.4872,270.6244,0.00042312,6.455e-05,0.0,0 STARLINK-4768,1 53806U 22111AK  24208.92590744  .00006455  00000-0  42312-3 0  9990,2 53806  53.2173  21.0063 0001081  89.4872 270.6244 15.08853204104843,6917.84,95.437,540.453,538.957,0.0
53806.0,STARLINK-4768,PAYLOAD,2024-07-27 10:56:23,15.08842739,5.89e-05,53.2193,18.6251,99.3801,260.7258,0.00010113,1.322e-05,0.0,0 STARLINK-4768,1 53806U 22111AK  24209.45582972  .00001322  00000-0  10113-3 0  9995,2 53806  53.2193  18.6251 0000589  99.3801 260.7258 15.08842739104116,6917.872,95.437,540.144,539.33,0.0
53806.0,STARLINK-4768,PAYLOAD,2024-07-27 15:42:33,15.08841138,3.57e-05,53.2168,17.731,52.306,307.7964,6.9967e-05,8.26e-06,0.0,0 STARLINK-4768,1 53806U 22111AK  24209.65455034  .00000826  00000-0  69967-4 0  9995,2 53806  53.2168  17.7310 0000357  52.3060 307.7964 15.08841138104953,6917.877,95.437,539.989,539.495,0.0
53806.0,STARLINK-4768,PAYLOAD,2024-07-28 04:25:38,15.08834446,0.0001278,53.2177,15.3536,104.4001,255.7133,9.1873e-05,1.174e-05,0.0,0 STARLINK-4768,1 53806U 22111AK  24210.18447646  .00001174  00000-0  91873-4 0  9993,2 53806  53.2177  15.3536 0001278 104.4001 255.7133 15.08834446104228,6917.897,95.438,540.646,538.878,0.0
53806.0,STARLINK-4768,PAYLOAD,2024-07-28 17:08:43,15.0883952,0.0001414,53.218,12.977,107.447,252.6676,7.1908e-05,8.57e-06,0.0,0 STARLINK-4768,1 53806U 22111AK  24210.71439812  .00000857  00000-0  71908-4 0  9992,2 53806  53.2180  12.9770 0001414 107.4470 252.6676 15.08839520105115,6917.882,95.438,540.725,538.769,0.0
53806.0,STARLINK-4768,PAYLOAD,2024-07-29 10:37:57,15.08855616,0.0001585,53.2183,9.7053,98.2387,261.8785,-0.0001085,-2.015e-05,0.0,0 STARLINK-4768,1 53806U 22111AK  24211.44302965 -.00002015  00000-0 -10850-3 0  9999,2 53806  53.2183   9.7053 0001585  98.2387 261.8785 15.08855616104418,6917.833,95.437,540.794,538.601,0.0
53806.0,STARLINK-4768,PAYLOAD,2024-07-29 18:34:54,15.088501,0.0001448,53.2178,8.2201,97.7358,262.3798,0.00041181,6.274e-05,0.0,0 STARLINK-4768,1 53806U 22111AK  24211.77423652  .00006274  00000-0  41181-3 0  9992,2 53806  53.2178   8.2201 0001448  97.7358 262.3798 15.08850100104469,6917.85,95.437,540.716,538.713,0.0
53806.0,STARLINK-4768,PAYLOAD,2024-07-30 10:28:45,15.08847977,0.0001797,53.2179,5.2457,107.0766,253.0423,0.00022716,3.33e-05,0.0,0 STARLINK-4768,1 53806U 22111AK  24212.43663530  .00003330  00000-0  22716-3 0  9990,2 53806  53.2179   5.2457 0001797 107.0766 253.0423 15.08847977104566,6917.856,95.437,540.964,538.478,0.0
53806.0,STARLINK-4768,PAYLOAD,2024-07-30 16:50:17,15.08852828,0.0002097,53.2178,4.0567,92.1569,267.9663,0.0003003,4.496e-05,0.0,0 STARLINK-4768,1 53806U 22111AK  24212.70159458  .00004496  00000-0  30030-3 0  9991,2 53806  53.2178   4.0567 0002097  92.1569 267.9663 15.08852828105419,6917.841,95.437,541.157,538.256,0.0
53806.0,STARLINK-4768,PAYLOAD,2024-07-31 16:41:05,15.08834985,0.000113,53.2164,359.5943,93.8335,266.2786,-3.4393e-05,-8.35e-06,0.0,0 STARLINK-4768,1 53806U 22111AK  24213.69520140 -.00000835  00000-0 -34393-4 0  9992,2 53806  53.2164 359.5943 0001130  93.8335 266.2786 15.08834985104754,6917.896,95.438,540.542,538.979,0.0
53806.0,STARLINK-4768,PAYLOAD,2024-08-01 10:10:19,15.08847117,0.0001058,53.2162,356.3225,87.622,272.4893,7.125e-05,8.47e-06,0.0,0 STARLINK-4768,1 53806U 22111AK  24214.42383582  .00000847  00000-0  71250-4 0  9995,2 53806  53.2162 356.3225 0001058  87.6220 272.4893 15.08847117104864,6917.859,95.437,540.456,538.992,0.0
53806.0,STARLINK-4768,PAYLOAD,2024-08-01 16:31:51,15.08850757,0.0001326,53.2175,355.1391,91.9626,268.1518,0.00024,3.535e-05,0.0,0 STARLINK-4768,1 53806U 22111AK  24214.68879374  .00003535  00000-0  24000-3 0  9999,2 53806  53.2175 355.1391 0001326  91.9626 268.1518 15.08850757105710,6917.848,95.437,540.63,538.795,0.0
53806.0,STARLINK-4768,PAYLOAD,2024-08-02 02:04:09,15.0886852,0.0001071,53.2197,353.3561,86.1076,274.0039,0.00053535,8.249e-05,0.0,0 STARLINK-4768,1 53806U 22111AK  24215.08622328  .00008249  00000-0  53535-3 0  9991,2 53806  53.2197 353.3561 0001071  86.1076 274.0039 15.08868520104962,6917.793,95.436,540.399,538.917,0.0
53806.0,STARLINK-4768,PAYLOAD,2024-08-02 13:11:53,15.08823756,0.0001398,53.2179,351.2741,97.3093,262.8058,-0.00034345,-5.747e-05,0.0,0 STARLINK-4768,1 53806U 22111AK  24215.54992271 -.00005747  00000-0 -34345-3 0  9999,2 53806  53.2179 351.2741 0001398  97.3093 262.8058 15.08823756105031,6917.93,95.439,540.762,538.828,0.0
53806.0,STARLINK-4768,PAYLOAD,2024-08-02 14:47:16,15.08824882,0.0001394,53.2181,350.9767,94.8503,265.2649,-0.00046683,-7.707e-05,0.0,0 STARLINK-4768,1 53806U 22111AK  24215.61616045 -.00007707  00000-0 -46683-3 0  9995,2 53806  53.2181 350.9767 0001394  94.8503 265.2649 15.08824882105856,6917.927,95.439,540.756,538.827,0.0
53806.0,STARLINK-4768,PAYLOAD,2024-08-02 16:22:39,15.08828151,0.000135,53.2182,350.6798,97.5121,262.6024,-0.0003224,-5.414e-05,0.0,0 STARLINK-4768,1 53806U 22111AK  24215.68240013 -.00005414  00000-0 -32240-3 0  9997,2 53806  53.2182 350.6798 0001350  97.5121 262.6024 15.08828151105868,6917.917,95.438,540.716,538.848,0.0
53806.0,STARLINK-4768,PAYLOAD,2024-08-03 01:54:58,15.08834851,0.0001447,53.2185,348.8949,94.3968,265.719,0.00098627,0.00015441,0.0,0 STARLINK-4768,1 53806U 22111AK  24216.07984409  .00015441  00000-0  98627-3 0  9995,2 53806  53.2185 348.8949 0001447  94.3968 265.7190 15.08834851105119,6917.896,95.438,540.762,538.76,0.0
53806.0,STARLINK-4768,PAYLOAD,2024-08-03 13:02:40,15.08839789,0.0001553,53.2191,346.814,94.0961,266.0209,0.00093407,0.00014609,0.0,0 STARLINK-4768,1 53806U 22111AK  24216.54352817  .00014609  00000-0  93407-3 0  9995,2 53806  53.2191 346.8140 0001553  94.0961 266.0209 15.08839789105991,6917.881,95.438,540.82,538.672,0.0
53806.0,STARLINK-4768,PAYLOAD,2024-08-03 17:48:50,15.08859607,0.0001366,53.2176,345.9204,89.623,270.4918,0.0023151,0.00036769,0.0,0 STARLINK-4768,1 53806U 22111AK  24216.74224576  .00036769  00000-0  23151-2 0  9996,2 53806  53.2176 345.9204 0001366  89.6230 270.4918 15.08859607106028,6917.82,95.436,540.63,538.74,0.0
53806.0,STARLINK-4768,PAYLOAD,2024-08-04 12:53:27,15.08847731,0.00016,53.2187,342.3537,76.7849,283.3322,0.00053861,8.296e-05,0.0,0 STARLINK-4768,1 53806U 22111AK  24217.53712054  .00008296  00000-0  53861-3 0  9993,2 53806  53.2187 342.3537 0001600  76.7849 283.3322 15.08847731105334,6917.857,95.437,540.829,538.615,0.0
53806.0,STARLINK-4768,PAYLOAD,2024-08-04 14:28:50,15.08848716,0.000118,53.2186,342.0567,70.0538,290.0581,0.00096725,0.00015143,0.0,0 STARLINK-4768,1 53806U 22111AK  24217.60336062  .00015143  00000-0  96725-3 0  9997,2 53806  53.2186 342.0567 0001180  70.0538 290.0581 15.08848716106155,6917.854,95.437,540.535,538.902,0.0
53806.0,STARLINK-4768,PAYLOAD,2024-08-04 17:39:36,15.08868808,0.0001328,53.2169,341.4604,70.7742,289.3394,0.0027303,0.00043467,0.0,0 STARLINK-4768,1 53806U 22111AK  24217.73583779  .00043467  00000-0  27303-2 0  9995,2 53806  53.2169 341.4604 0001328  70.7742 289.3394 15.08868808105368,6917.792,95.436,540.576,538.739,0.0
53806.0,STARLINK-4768,PAYLOAD,2024-08-05 12:44:14,15.08827314,0.0001507,53.2174,337.8931,88.3263,271.7902,0.00032725,4.922e-05,0.0,0 STARLINK-4768,1 53806U 22111AK  24218.53072013  .00004922  00000-0  32725-3 0  9996,2 53806  53.2174 337.8931 0001507  88.3263 271.7902 15.08827314105488,6917.919,95.438,540.827,538.742,0.0
